IRIDIUM 63              
1 25286U 98021B   25190.74781126  .00000246  00000+0  76932-4 0  9998
2 25286  86.3959  72.6667 0002080  90.3600 269.7836 14.36558376427087
IRIDIUM 69              
1 25319U 98026A   25190.96899893  .00000324  00000+0  94828-4 0  9996
2 25319  86.3961  85.7965 0001711  12.3036 347.8205 14.40985224426347
IRIDIUM 71              
1 25320U 98026B   25190.97285286  .00000274  00000+0  78949-4 0  9994
2 25320  86.3956  80.4809 0003429  48.9954 311.1541 14.41172706426873
IRIDIUM 73              
1 25344U 98032C   25190.94592173  .00000337  00000+0  78844-4 0  9994
2 25344  86.4397  37.1473 0001574  84.9494 275.1891 14.51733038433869
IRIDIUM 82              
1 25467U 98051A   25190.81313945  .00012899  00000+0  36106-3 0  9995
2 25467  86.3669  98.6069 0082041 208.5974 151.0765 15.33083690427424
